LUR-1                   
1 60506U 24149AQ  26068.79566301  .00009121  00000+0  32985-3 0  9998
2 60506  97.3790 148.4255 0002777 309.1571  50.9421 15.28658648 86785
STARLINK-32612          
1 61972U 24210P   26068.34235245  .00033572  00000+0  12230-2 0  9993
2 61972  43.0011 182.0561 0003043 285.6662  74.3854 15.27601895 74820
